[{"OBJECT_NAME":"ONEWEB-0358","OBJECT_ID":"2021-090F","EPOCH":"2026-03-03T15:37:43.990176","MEAN_MOTION":13.20772362,"ECCENTRICITY":0.0001583,"INCLINATION":87.9182,"RA_OF_ASC_NODE":295.5083,"ARG_OF_PERICENTER":79.245,"MEAN_ANOMALY":280.8862,"EPHEMERIS_TYPE":0,"CLASSIFICATION_TYPE":"U","NORAD_CAT_ID":49284,"ELEMENT_SET_NO":999,"REV_AT_EPOCH":21662,"BSTAR":0.00020398,"MEAN_MOTION_DOT":9.6e-7,"MEAN_MOTION_DDOT":0},{"OBJECT_NAME":"ONEWEB-0359","OBJECT_ID":"2021-090G","EPOCH":"2026-03-03T15:33:10.953216","MEAN_MOTION":13.20769816,"ECCENTRICITY":0.0001789,"INCLINATION":87.9183,"RA_OF_ASC_NODE":295.5056,"ARG_OF_PERICENTER":76.3469,"MEAN_ANOMALY":283.7864,"EPHEMERIS_TYPE":0,"CLASSIFICATION_TYPE":"U","NORAD_CAT_ID":49285,"ELEMENT_SET_NO":999,"REV_AT_EPOCH":21660,"BSTAR":5.6859e-5,"MEAN_MOTION_DOT":3.6e-7,"MEAN_MOTION_DDOT":0},{"OBJECT_NAME":"ONEWEB-0360","OBJECT_ID":"2021-090H","EPOCH":"2026-03-03T17:08:37.166784","MEAN_MOTION":13.20773562,"ECCENTRICITY":0.0001727,"INCLINATION":87.918,"RA_OF_ASC_NODE":295.4995,"ARG_OF_PERICENTER":80.2279,"MEAN_ANOMALY":279.9049,"EPHEMERIS_TYPE":0,"CLASSIFICATION_TYPE":"U","NORAD_CAT_ID":49286,"ELEMENT_SET_NO":999,"REV_AT_EPOCH":21592,"BSTAR":0.00010843,"MEAN_MOTION_DOT":5.7e-7,"MEAN_MOTION_DDOT":0},{"OBJECT_NAME":"ONEWEB-0361","OBJECT_ID":"2021-090J","EPOCH":"2026-03-03T16:41:21.427296","MEAN_MOTION":13.20772582,"ECCENTRICITY":0.0001457,"INCLINATION":87.9183,"RA_OF_ASC_NODE":295.5003,"ARG_OF_PERICENTER":79.6764,"MEAN_ANOMALY":280.4533,"EPHEMERIS_TYPE":0,"CLASSIFICATION_TYPE":"U","NORAD_CAT_ID":49287,"ELEMENT_SET_NO":999,"REV_AT_EPOCH":21637,"BSTAR":1.6726e-5,"MEAN_MOTION_DOT":2.0e-7,"MEAN_MOTION_DDOT":0},{"OBJECT_NAME":"ONEWEB-0362","OBJECT_ID":"2021-090K","EPOCH":"2026-03-03T17:11:08.303712","MEAN_MOTION":13.19725777,"ECCENTRICITY":0.0001918,"INCLINATION":87.9236,"RA_OF_ASC_NODE":325.9901,"ARG_OF_PERICENTER":83.396,"MEAN_ANOMALY":276.7391,"EPHEMERIS_TYPE":0,"CLASSIFICATION_TYPE":"U","NORAD_CAT_ID":49288,"ELEMENT_SET_NO":999,"REV_AT_EPOCH":21300,"BSTAR":-9.2387e-5,"MEAN_MOTION_DOT":-2.4e-7,"MEAN_MOTION_DDOT":0},{"OBJECT_NAME":"ONEWEB-0363","OBJECT_ID":"2021-090L","EPOCH":"2026-03-03T17:04:06.268224","MEAN_MOTION":13.20773502,"ECCENTRICITY":0.0001355,"INCLINATION":87.9182,"RA_OF_ASC_NODE":295.498,"ARG_OF_PERICENTER":73.4144,"MEAN_ANOMALY":286.7138,"EPHEMERIS_TYPE":0,"CLASSIFICATION_TYPE":"U","NORAD_CAT_ID":49289,"ELEMENT_SET_NO":999,"REV_AT_EPOCH":21638,"BSTAR":8.2243e-5,"MEAN_MOTION_DOT":4.6e-7,"MEAN_MOTION_DDOT":0},{"OBJECT_NAME":"ONEWEB-0364","OBJECT_ID":"2021-090M","EPOCH":"2026-03-03T16:09:33.014592","MEAN_MOTION":13.20771626,"ECCENTRICITY":0.0001529,"INCLINATION":87.9168,"RA_OF_ASC_NODE":295.5208,"ARG_OF_PERICENTER":80.4084,"MEAN_ANOMALY":279.7222,"EPHEMERIS_TYPE":0,"CLASSIFICATION_TYPE":"U","NORAD_CAT_ID":49290,"ELEMENT_SET_NO":999,"REV_AT_EPOCH":21751,"BSTAR":0.00017186,"MEAN_MOTION_DOT":8.3e-7,"MEAN_MOTION_DDOT":0},{"OBJECT_NAME":"ONEWEB-0365","OBJECT_ID":"2021-090N","EPOCH":"2026-03-03T17:24:46.325952","MEAN_MOTION":13.19723202,"ECCENTRICITY":0.0001756,"INCLINATION":87.9249,"RA_OF_ASC_NODE":325.9671,"ARG_OF_PERICENTER":83.0715,"MEAN_ANOMALY":277.0617,"EPHEMERIS_TYPE":0,"CLASSIFICATION_TYPE":"U","NORAD_CAT_ID":49291,"ELEMENT_SET_NO":999,"REV_AT_EPOCH":21251,"BSTAR":0.00024775,"MEAN_MOTION_DOT":1.12e-6,"MEAN_MOTION_DDOT":0},{"OBJECT_NAME":"ONEWEB-0366","OBJECT_ID":"2021-090P","EPOCH":"2026-03-03T16:59:55.366944","MEAN_MOTION":13.14501749,"ECCENTRICITY":0.000163,"INCLINATION":87.8992,"RA_OF_ASC_NODE":310.7579,"ARG_OF_PERICENTER":78.5642,"MEAN_ANOMALY":281.567,"EPHEMERIS_TYPE":0,"CLASSIFICATION_TYPE":"U","NORAD_CAT_ID":49292,"ELEMENT_SET_NO":999,"REV_AT_EPOCH":21370,"BSTAR":-0.00051123,"MEAN_MOTION_DOT":-1.77e-6,"MEAN_MOTION_DDOT":0},{"OBJECT_NAME":"ONEWEB-0367","OBJECT_ID":"2021-090Q","EPOCH":"2026-03-03T17:01:48.568224","MEAN_MOTION":13.2077285,"ECCENTRICITY":0.0001755,"INCLINATION":87.9186,"RA_OF_ASC_NODE":295.4985,"ARG_OF_PERICENTER":87.7532,"MEAN_ANOMALY":272.3802,"EPHEMERIS_TYPE":0,"CLASSIFICATION_TYPE":"U","NORAD_CAT_ID":49293,"ELEMENT_SET_NO":999,"REV_AT_EPOCH":21590,"BSTAR":-7.6295e-5,"MEAN_MOTION_DOT":-1.8e-7,"MEAN_MOTION_DDOT":0},{"OBJECT_NAME":"ONEWEB-0368","OBJECT_ID":"2021-090R","EPOCH":"2026-03-03T16:23:10.382784","MEAN_MOTION":13.20772637,"ECCENTRICITY":8.77e-5,"INCLINATION":87.9174,"RA_OF_ASC_NODE":295.526,"ARG_OF_PERICENTER":99.7313,"MEAN_ANOMALY":260.3919,"EPHEMERIS_TYPE":0,"CLASSIFICATION_TYPE":"U","NORAD_CAT_ID":49294,"ELEMENT_SET_NO":999,"REV_AT_EPOCH":21705,"BSTAR":0.00021984,"MEAN_MOTION_DOT":1.02e-6,"MEAN_MOTION_DDOT":0},{"OBJECT_NAME":"ONEWEB-0369","OBJECT_ID":"2021-090S","EPOCH":"2026-03-03T17:17:57.685056","MEAN_MOTION":13.197261,"ECCENTRICITY":0.0001633,"INCLINATION":87.9239,"RA_OF_ASC_NODE":325.9863,"ARG_OF_PERICENTER":79.7994,"MEAN_ANOMALY":280.3323,"EPHEMERIS_TYPE":0,"CLASSIFICATION_TYPE":"U","NORAD_CAT_ID":49295,"ELEMENT_SET_NO":999,"REV_AT_EPOCH":21250,"BSTAR":6.354e-5,"MEAN_MOTION_DOT":3.8e-7,"MEAN_MOTION_DDOT":0},{"OBJECT_NAME":"ONEWEB-0370","OBJECT_ID":"2021-090T","EPOCH":"2026-03-03T17:15:27.550368","MEAN_MOTION":13.20771971,"ECCENTRICITY":0.0001909,"INCLINATION":87.918,"RA_OF_ASC_NODE":295.4977,"ARG_OF_PERICENTER":82.6654,"MEAN_ANOMALY":277.4696,"EPHEMERIS_TYPE":0,"CLASSIFICATION_TYPE":"U","NORAD_CAT_ID":49296,"ELEMENT_SET_NO":999,"REV_AT_EPOCH":21594,"BSTAR":0.000166,"MEAN_MOTION_DOT":8.0e-7,"MEAN_MOTION_DDOT":0},{"OBJECT_NAME":"ONEWEB-0371","OBJECT_ID":"2021-090U","EPOCH":"2026-03-03T17:29:20.130144","MEAN_MOTION":13.19725285,"ECCENTRICITY":0.0001791,"INCLINATION":87.9241,"RA_OF_ASC_NODE":325.9737,"ARG_OF_PERICENTER":80.5057,"MEAN_ANOMALY":279.6278,"EPHEMERIS_TYPE":0,"CLASSIFICATION_TYPE":"U","NORAD_CAT_ID":49297,"ELEMENT_SET_NO":999,"REV_AT_EPOCH":21254,"BSTAR":-8.3143e-5,"MEAN_MOTION_DOT":-2.0e-7,"MEAN_MOTION_DDOT":0},{"OBJECT_NAME":"ONEWEB-0372","OBJECT_ID":"2021-090V","EPOCH":"2026-03-03T16:59:21.448032","MEAN_MOTION":13.20771862,"ECCENTRICITY":0.0001569,"INCLINATION":87.9184,"RA_OF_ASC_NODE":295.5005,"ARG_OF_PERICENTER":88.2905,"MEAN_ANOMALY":271.8408,"EPHEMERIS_TYPE":0,"CLASSIFICATION_TYPE":"U","NORAD_CAT_ID":49298,"ELEMENT_SET_NO":999,"REV_AT_EPOCH":21591,"BSTAR":-2.7851e-5,"MEAN_MOTION_DOT":2.0e-8,"MEAN_MOTION_DDOT":0},{"OBJECT_NAME":"ONEWEB-0373","OBJECT_ID":"2021-090W","EPOCH":"2026-03-03T15:49:04.709856","MEAN_MOTION":13.20770236,"ECCENTRICITY":0.0001647,"INCLINATION":87.9172,"RA_OF_ASC_NODE":295.5163,"ARG_OF_PERICENTER":79.9943,"MEAN_ANOMALY":280.1376,"EPHEMERIS_TYPE":0,"CLASSIFICATION_TYPE":"U","NORAD_CAT_ID":49299,"ELEMENT_SET_NO":999,"REV_AT_EPOCH":21709,"BSTAR":0.00030027,"MEAN_MOTION_DOT":1.35e-6,"MEAN_MOTION_DDOT":0},{"OBJECT_NAME":"ONEWEB-0374","OBJECT_ID":"2021-090X","EPOCH":"2026-03-03T16:41:39.056352","MEAN_MOTION":13.14501313,"ECCENTRICITY":0.0001197,"INCLINATION":87.8999,"RA_OF_ASC_NODE":310.7439,"ARG_OF_PERICENTER":65.175,"MEAN_ANOMALY":294.9504,"EPHEMERIS_TYPE":0,"CLASSIFICATION_TYPE":"U","NORAD_CAT_ID":49300,"ELEMENT_SET_NO":999,"REV_AT_EPOCH":21370,"BSTAR":2.3772e-5,"MEAN_MOTION_DOT":2.2e-7,"MEAN_MOTION_DDOT":0}]
