ONEWEB-0358             
1 49284U 21090F   26062.65120359  .00000096  00000+0  20398-3 0  9995
2 49284  87.9182 295.5083 0001583  79.2450 280.8862 13.20772362216624
ONEWEB-0359             
1 49285U 21090G   26062.64804344  .00000036  00000+0  56859-4 0  9994
2 49285  87.9183 295.5056 0001789  76.3469 283.7864 13.20769816216604
ONEWEB-0360             
1 49286U 21090H   26062.71431906  .00000057  00000+0  10843-3 0  9998
2 49286  87.9180 295.4995 0001727  80.2279 279.9049 13.20773562215927
ONEWEB-0361             
1 49287U 21090J   26062.69538689  .00000020  00000+0  16726-4 0  9999
2 49287  87.9183 295.5003 0001457  79.6764 280.4533 13.20772582216379
ONEWEB-0362             
1 49288U 21090K   26062.71606833 -.00000024  00000+0 -92387-4 0  9993
2 49288  87.9236 325.9901 0001918  83.3960 276.7391 13.19725777213005
ONEWEB-0363             
1 49289U 21090L   26062.71118366  .00000046  00000+0  82243-4 0  9995
2 49289  87.9182 295.4980 0001355  73.4144 286.7138 13.20773502216388
ONEWEB-0364             
1 49290U 21090M   26062.67329878  .00000083  00000+0  17186-3 0  9998
2 49290  87.9168 295.5208 0001529  80.4084 279.7222 13.20771626217519
ONEWEB-0365             
1 49291U 21090N   26062.72553618  .00000112  00000+0  24775-3 0  9991
2 49291  87.9249 325.9671 0001756  83.0715 277.0617 13.19723202212513
ONEWEB-0366             
1 49292U 21090P   26062.70827971 -.00000177  00000+0 -51123-3 0  9996
2 49292  87.8992 310.7579 0001630  78.5642 281.5670 13.14501749213702
ONEWEB-0367             
1 49293U 21090Q   26062.70958991 -.00000018  00000+0 -76295-4 0  9996
2 49293  87.9186 295.4985 0001755  87.7532 272.3802 13.20772850215906
ONEWEB-0368             
1 49294U 21090R   26062.68275906  .00000102  00000+0  21984-3 0  9998
2 49294  87.9174 295.5260 0000877  99.7313 260.3919 13.20772637217052
ONEWEB-0369             
1 49295U 21090S   26062.72080654  .00000038  00000+0  63540-4 0  9991
2 49295  87.9239 325.9863 0001633  79.7994 280.3323 13.19726100212504
ONEWEB-0370             
1 49296U 21090T   26062.71906887  .00000080  00000+0  16600-3 0  9997
2 49296  87.9180 295.4977 0001909  82.6654 277.4696 13.20771971215948
ONEWEB-0371             
1 49297U 21090U   26062.72870521 -.00000020  00000+0 -83143-4 0  9997
2 49297  87.9241 325.9737 0001791  80.5057 279.6278 13.19725285212541
ONEWEB-0372             
1 49298U 21090V   26062.70788713  .00000002  00000+0 -27851-4 0  9990
2 49298  87.9184 295.5005 0001569  88.2905 271.8408 13.20771862215915
ONEWEB-0373             
1 49299U 21090W   26062.65908229  .00000135  00000+0  30027-3 0  9995
2 49299  87.9172 295.5163 0001647  79.9943 280.1376 13.20770236217096
ONEWEB-0374             
1 49300U 21090X   26062.69559093  .00000022  00000+0  23772-4 0  9998
2 49300  87.8999 310.7439 0001197  65.1750 294.9504 13.14501313213705
